OBJECT_NAME,OBJECT_ID,EPOCH,MEAN_MOTION,ECCENTRICITY,INCLINATION,RA_OF_ASC_NODE,ARG_OF_PERICENTER,MEAN_ANOMALY,EPHEMERIS_TYPE,CLASSIFICATION_TYPE,NORAD_CAT_ID,ELEMENT_SET_NO,REV_AT_EPOCH,BSTAR,MEAN_MOTION_DOT,MEAN_MOTION_DDOT
OSCAR 7 (AO-7),1974-089B,2026-06-25T13:00:57.070944,12.53698202,.00126427,101.9899,189.8760,114.6593,39.6394,0,U,7530,999,36156,.90872038E-4,-.32E-6,0
PHASE 3B (AO-10),1983-058B,2026-06-23T16:21:57.137184,2.05872578,.60085647,25.9176,218.4895,117.4551,314.9460,0,U,14129,999,29562,0,-.85E-6,0
UOSAT 2 (UO-11),1984-021B,2026-06-25T11:27:03.153312,14.90802492,.00083648,97.8060,141.9593,146.7542,213.4203,0,U,14781,999,25836,.12648671E-3,.1189E-4,0
LUSAT (LO-19),1990-005G,2026-06-25T13:18:03.299040,14.34125488,.00116113,98.8847,198.5903,176.2133,183.9140,0,U,20442,999,90359,.56200875E-4,.111E-5,0
EYESAT A (AO-27),1993-061C,2026-06-25T11:03:20.657664,14.30944241,.00095149,98.6877,243.8711,78.4721,281.7529,0,U,22825,999,70818,.47438429E-4,.8E-6,0
ITAMSAT (IO-26),1993-061D,2026-06-25T10:30:08.612352,14.31371378,.00099116,98.6825,243.7664,63.5837,296.6361,0,U,22826,999,70849,.48601527E-4,.84E-6,0
RADIO ROSTO (RS15),1994-085A,2026-06-25T12:59:40.820352,11.27583386,.01562216,64.8179,289.7053,2.3308,357.8311,0,U,23439,999,29684,-.1411159E-3,-.47E-6,0
JAS-2 (FO-29),1996-046B,2026-06-25T12:25:36.523776,13.53274737,.03509078,98.5234,24.2484,74.8783,289.0890,0,U,24278,999,47429,.17132593E-4,-.16E-6,0
TECHSAT 1B (GO-32),1998-043D,2026-06-25T13:31:51.347136,14.24429889,.00014688,99.0071,169.5339,146.9884,213.1386,0,U,25397,999,45252,.46075329E-4,.6E-6,0
ISS (ZARYA),1998-067A,2026-06-25T12:14:30.025536,15.49422389,.00043691,51.6326,258.8948,230.1925,129.8680,0,U,25544,999,57304,.18376191E-3,.9838E-4,0
PCSAT (NO-44),2001-043C,2026-06-25T12:58:41.119680,14.31958602,.00060449,67.0493,222.6659,265.0892,94.9520,0,U,26931,999,29164,.65276098E-4,.92E-6,0
SAUDISAT 1C (SO-50),2002-058C,2026-06-25T12:24:16.883712,14.83063362,.00750726,64.5519,103.2137,260.9225,98.3381,0,U,27607,999,26569,.12783055E-3,.938E-5,0
CUTE-1 (CO-55),2003-031E,2026-06-25T12:53:31.892352,14.24340467,.00100434,98.6736,184.9911,154.4508,205.7169,0,U,27844,999,19286,.1417721E-3,.284E-5,0
CUBESAT XI-IV (CO-57),2003-031J,2026-06-25T12:42:56.718432,14.23624963,.00095682,98.6767,184.6898,172.4685,187.6639,0,U,27848,999,19256,.12556894E-3,.243E-5,0
MOZHAETS 4 (RS22),2003-042A,2026-06-25T15:18:20.998656,14.73480755,.0010028,98.3474,1.2354,239.2728,208.9572,0,U,27939,999,21679,.16811479E-3,.1038E-4,0
CUBESAT XI-V,2005-043F,2026-06-25T08:27:17.572608,14.72651786,.0014207,98.2992,332.1457,174.6504,185.4857,0,U,28895,999,10295,.22377985E-3,.1375E-4,0
CUTE-1.7+APD II (CO-65),2008-021C,2026-06-25T12:50:17.107008,15.09526758,.00089469,97.8275,158.1272,13.9329,346.2145,0,U,32785,999,98645,.3525197E-3,.5592E-4,0
SEEDS II (CO-66),2008-021J,2026-06-25T13:21:24.158304,15.33017433,.00003725,97.7517,174.8551,231.0753,129.0455,0,U,32791,999,98857,.71096461E-3,.22634E-3,0
YUBILEINY (RS30),2008-025A,2026-06-25T13:10:04.070208,12.43179831,.00186136,82.5047,350.2382,294.7274,65.1868,0,U,32953,999,82073,.20337489E-3,.38E-6,0
KKS-1 (KISEKI),2009-002H,2026-06-25T11:41:53.464704,14.83143295,.00063625,98.1187,99.0612,263.0546,96.9943,0,U,33499,999,93742,.16115916E-3,.1259E-4,0
SWISSCUBE,2009-051B,2026-06-25T05:48:18.641088,14.62495581,.00065459,98.4030,84.2704,176.2173,183.9079,0,U,35932,999,89033,.19415285E-3,.935E-5,0
BEESAT-1,2009-051C,2026-06-25T06:07:56.267904,14.61732314,.0004745,98.3958,83.9028,188.0709,172.0416,0,U,35933,999,89036,.1657904E-3,.777E-5,0
ITUPSAT1,2009-051E,2026-06-24T07:03:47.026656,14.60449650,.00066045,98.4043,82.1112,208.5040,151.5799,0,U,35935,999,88977,.13593293E-3,.61E-5,0
XIWANG-1 (HOPE-1),2009-072B,2026-06-25T14:29:26.961792,13.16441078,.0007037,100.4023,130.3013,210.7282,149.3420,0,U,36122,999,79411,.95395087E-3,.32E-5,0
O/OREOS (USA 219),2010-062C,2026-06-25T02:21:49.888512,14.93774803,.00128418,71.9701,62.4189,46.2089,314.0141,0,U,37224,999,11782,.20305073E-3,.2094E-4,0
JUGNU,2011-058B,2026-06-25T13:35:34.565856,14.13778751,.00184975,19.9600,257.5233,168.3639,315.1616,0,U,37839,999,76021,.71364893E-4,.404E-5,0
SRMSAT,2011-058D,2026-06-25T13:19:25.708224,14.11577173,.00117096,19.9735,8.8199,296.2835,90.0618,0,U,37841,999,75900,.58141977E-4,.372E-5,0
STRAND-1,2013-009E,2026-06-25T11:31:32.235744,14.37167817,.00081824,98.3924,356.5105,198.4624,161.6268,0,U,39090,999,69825,.10766854E-3,.278E-5,0
ZACUBE-1 (TSHEPISOSAT),2013-066B,2026-06-25T11:20:24.520128,15.01229749,.00419393,97.8049,138.8520,219.3895,140.4277,0,U,39417,999,68197,.27394895E-3,.3519E-4,0
GOMX-1,2013-066Q,2026-06-25T11:50:16.976256,14.69485800,.0129896,97.6486,16.4318,51.1867,310.0854,0,U,39430,999,67113,.26269917E-3,.1722E-4,0
